ONEWEB-0551             
1 56053U 23043H   24018.71559121 -.00000127  00000+0 -37101-3 0  9993
2 56053  87.8975  74.4973 0002117 101.0609 259.0759 13.15549614 40636
ONEWEB-0552             
1 56054U 23043J   24019.47811368 -.00020745  00000+0 -50287-1 0  9998
2 56054  87.9202  59.1223 0002819 120.6419 239.4994 13.21943510 42921
ONEWEB-0553             
1 56055U 23043K   24019.44113121  .00000057  00000+0  11547-3 0  9998
2 56055  87.9038  43.8724 0001560  79.7062 280.4245 13.16596118 44126
ONEWEB-0554             
1 56056U 23043L   24019.50445557  .00000096  00000+0  21780-3 0  9990
2 56056  87.9041  43.8772 0001836 120.2952 239.8361 13.16594540 44113
ONEWEB-0555             
1 56057U 23043M   24019.46645067 -.00000029  00000+0 -10945-3 0  9993
2 56057  87.9040  43.8593 0001129  74.6738 285.4517 13.16592951 44117
ONEWEB-0557             
1 56058U 23043N   24019.10071475 -.00000029  00000+0 -10978-3 0  9997
2 56058  87.9038  43.9594 0000677  98.2945 261.8263 13.16593690 44067
ONEWEB-0558             
1 56059U 23043P   24019.16906520 -.00000009  00000+0 -53612-4 0  9993
2 56059  87.9214  59.1578 0002402  96.1943 263.9464 13.21824797 42894
ONEWEB-0559             
1 56060U 23043Q   24019.46081760 -.00000101  00000+0 -27634-3 0  9995
2 56060  87.9214  59.0995 0002271 110.6839 249.4538 13.21823573 42946
ONEWEB-0566             
1 56061U 23043R   24018.62185050  .00000051  00000+0  92895-4 0  9994
2 56061  87.9212  59.2684 0002634  97.8156 262.3277 13.21825746 41906
ONEWEB-0568             
1 56062U 23043S   24018.89015928  .00000208  00000+0  50958-3 0  9997
2 56062  87.9039  43.9652 0001530  85.0117 275.1189 13.16595268 43148
ONEWEB-0574             
1 56063U 23043T   24018.61553844  .00000053  00000+0  96435-4 0  9991
2 56063  87.9210  59.2667 0001915  91.7766 268.3587 13.21826557 41943
ONEWEB-0575             
1 56064U 23043U   24019.11181457  .00000038  00000+0  65516-4 0  9994
2 56064  87.9041  43.9280 0001341 109.7503 250.3772 13.16592988 44075
ONEWEB-0576             
1 56065U 23043V   24018.63681685 -.00000060  00000+0 -18927-3 0  9999
2 56065  87.9037  44.0234 0001382  85.5421 274.5867 13.16593202 43091
ONEWEB-0577             
1 56066U 23043W   24019.09912699 -.00000015  00000+0 -73118-4 0  9997
2 56066  87.9037  43.9298 0001198 119.0839 241.0412 13.16594238 44097
ONEWEB-0578             
1 56067U 23043X   24019.13280178  .00000027  00000+0  33610-4 0  9997
2 56067  87.9207  59.1568 0001759  91.8243 268.3092 13.21825025 42883
ONEWEB-0579             
1 56068U 23043Y   24019.50183208 -.00001209  00000+0 -29593-2 0  9993
2 56068  87.9211  59.0848 0001640  93.0908 267.0413 13.21814672 42946
ONEWEB-0581             
1 56069U 23043Z   24018.57348680  .00000020  00000+0  19645-4 0  9994
2 56069  87.9037  44.0642 0001650 114.2940 245.8363 13.16593476 43086
ONEWEB-0609             
1 56070U 23043AA  24019.20047135  .00000023  00000+0  26416-4 0  9995
2 56070  87.8973  74.3859 0001918  97.7225 262.4123 13.15547830 41641
ONEWEB-0613             
1 56071U 23043AB  24018.66331760  .00000061  00000+0  12821-3 0  9991
2 56071  87.8978  74.4832 0002227 105.3986 254.7390 13.15547853 40669
ONEWEB-0630             
1 56072U 23043AC  24018.65854590 -.00000462  00000+0 -12606-2 0  9999
2 56072  87.8974  74.4802 0002346 100.7077 259.4318 13.15548129 40653
ONEWEB-0632             
1 56073U 23043AD  24018.65380015 -.00000029  00000+0 -11000-3 0  9993
2 56073  87.8973  74.4998 0001816 111.8838 248.2486 13.15549426 40651
ONEWEB-0633             
1 56074U 23043AE  24018.64745599 -.00000387  00000+0 -10625-2 0  9993
2 56074  87.8970  74.4884 0002482  98.4139 261.7273 13.15548062 40634
ONEWEB-0634             
1 56075U 23043AF  24018.70926304 -.00000121  00000+0 -35569-3 0  9997
2 56075  87.8978  74.4768 0001904  86.4863 273.6485 13.15549255 40635
ONEWEB-0635             
1 56076U 23043AG  24018.62845889 -.00000063  00000+0 -20222-3 0  9992
2 56076  87.8976  74.5519 0001809 115.8784 244.2533 13.15548317 40650
ONEWEB-0636             
1 56077U 23043AH  24018.69657500  .00000053  00000+0  10750-3 0  9993
2 56077  87.8979  74.5070 0001638 112.2016 247.9288 13.15550086 40647
ONEWEB-0637             
1 56078U 23043AJ  24018.69025280  .00000091  00000+0  20669-3 0  9990
2 56078  87.8975  74.4828 0001679 116.7994 243.3309 13.15547418 40664
ONEWEB-0647             
1 56079U 23043AK  24018.68548353  .00000228  00000+0  57072-3 0  9991
2 56079  87.8977  74.5059 0001869 112.5354 247.5975 13.15551014 40650
ONEWEB-0651             
1 56080U 23043AL  24018.68072821  .00000182  00000+0  44851-3 0  9995
2 56080  87.8978  74.4788 0001524 112.4818 247.6473 13.15549949 41854
ONEWEB-0718             
1 56081U 23043AM  24019.20836985 -.00011360  00000+0 -30224-1 0  9993
2 56081  87.8977  74.3614 0001711  69.7327 290.3987 13.15601996 41641
GSLV R/B                
1 56082U 23043AN  24018.56363481  .00062755  00000+0  84364-3 0  9996
2 56082  87.4070  35.9643 0013373 305.8182  54.1839 15.57563937 46093
ONEWEB-0561             
1 56710U 23068A   24019.26250244  .00000124  00000+0  22336-3 0  9994
2 56710  88.2903  86.8541 0002579 114.6547 245.4863 13.34323953 33963
ONEWEB-0668             
1 56711U 23068B   24018.91667824 -.00665208  00000+0 -65169+0 0  9991
2 56711  87.4766  44.6982 0014758  99.1620 310.2531 13.82037993  5550
ONEWEB-0676             
1 56712U 23068C   24019.58334491  .00000016  00000+0  00000+0 0  9998
2 56712  87.4574  44.4859 0017715  98.1508  31.4065 13.71500184 36585
ONEWEB-0677             
1 56713U 23068D   24018.69837295  .00000080  00000+0  13361-3 0  9999
2 56713  88.3237  85.1509 0001465 124.0008 236.1273 13.34775296 33371
ONEWEB-0678             
1 56714U 23068E   24018.64429508 -.00000079  00000+0 -24481-3 0  9994
2 56714  87.8978  74.4360 0002025  97.9501 262.1859 13.15548787 33510
ONEWEB-0679             
1 56715U 23068F   24019.58334491  .00000016  00000+0  00000+0 0  9991
2 56715  87.4352  44.4980 0015821  98.5383 311.3109 13.70969289 36604
ONEWEB-0680             
1 56716U 23068G   24018.65735576  .00000010  00000+0 -66360-5 0  9990
2 56716  87.9212  59.2899 0001626  66.1785 293.9519 13.21824618 34771
ONEWEB-0681             
1 56717U 23068H   24019.13674913  .00000026  00000+0  32113-4 0  9996
2 56717  87.9213  59.1825 0001638 137.8889 222.2371 13.21825656 35523
ONEWEB-0682             
1 56718U 23068J   24018.68313129  .00000138  00000+0  33202-3 0  9998
2 56718  87.8976  74.4803 0001361  90.2731 269.8555 13.15546749 33688
ONEWEB-0683             
1 56719U 23068K   24019.22502589  .00000158  00000+0  38553-3 0  9996
2 56719  87.8976  74.3396 0001530  94.6567 265.4738 13.15551430 34429
ONEWEB-0684             
1 56720U 23068L   24019.15610904  .00000103  00000+0  23909-3 0  9990
2 56720  87.8977  74.4283 0002339  92.0231 268.1167 13.15547710 34248
ONEWEB-0686             
1 56721U 23068M   24019.58334491  .00000016  00000+0  00000+0 0  9998
2 56721  87.4633  44.4887 0015395  98.9326  92.6462 13.72121410 36593
ONEWEB-0694             
1 56722U 23068N   24019.58334491 -.00746115  00000+0 -79186+0 0  9999
2 56722  87.4651  44.4936 0015861  98.0420 338.2525 13.77127433 36633
ONEWEB-0696             
1 56723U 23068P   24018.65618525 -.00000005  00000+0 -46779-4 0  9998
2 56723  87.8975  74.5024 0002126 109.3523 250.7837 13.15549950 33599
ONEWEB-0703             
1 56724U 23068Q   24019.12282075  .00000127  00000+0  30297-3 0  9999
2 56724  87.8974  74.4311 0002791 123.7290 236.4107 13.15547605 34245
ONEWEB-0721             
1 56725U 23068R   24018.53551099  .00002864  00000+0  34055-3 0  9995
2 56725  86.6755  39.0067 0013444  87.5810 272.6952 14.84003287 36856
